[{"OBJECT_NAME":"STARLINK-30405","OBJECT_ID":"2023-141M","EPOCH":"2026-03-09T20:51:18.101664","MEAN_MOTION":15.30185985,"ECCENTRICITY":0.00011537,"INCLINATION":53.1592,"RA_OF_ASC_NODE":283.3656,"ARG_OF_PERICENTER":66.826,"MEAN_ANOMALY":293.2862,"EPHEMERIS_TYPE":0,"CLASSIFICATION_TYPE":"U","NORAD_CAT_ID":57851,"ELEMENT_SET_NO":999,"REV_AT_EPOCH":14035,"BSTAR":2.4465638e-5,"MEAN_MOTION_DOT":3.65e-6,"MEAN_MOTION_DDOT":0},{"OBJECT_NAME":"KUIPER-00213","OBJECT_ID":"2026-030P","EPOCH":"2026-03-09T22:00:01.999584","MEAN_MOTION":15.32626943,"ECCENTRICITY":0.00152813,"INCLINATION":51.8816,"RA_OF_ASC_NODE":218.5142,"ARG_OF_PERICENTER":64.2462,"MEAN_ANOMALY":206.8369,"EPHEMERIS_TYPE":0,"CLASSIFICATION_TYPE":"U","NORAD_CAT_ID":67777,"ELEMENT_SET_NO":999,"REV_AT_EPOCH":502,"BSTAR":0.0016072376,"MEAN_MOTION_DOT":0.00051551,"MEAN_MOTION_DDOT":0}]
